MSG 1
1 27509U 02040B   09295.94825028  .00000060  00000-0  10000-3 0  4155
2 27509 000.4140 350.0153 0000991 030.3870 002.1585 01.00269633 26280